{"type": "FeatureCollection", "features": [ {"type": "Feature", "properties": {"norad_id": 37483, "name": "COSMOS 2251 DEB", "group": "cosmos-2251-debris", "lat": -22.936063527364134, "lon": -56.591303447432715, "alt_km": 780.3618028443634, "timestamp": "2025-12-27T03:58:44.544295+00:00", "meta": {"OBJECT_NAME": "COSMOS 2251 DEB", "OBJECT_ID": "1993-036BLL", "EPOCH": "2025-12-24T01:50:58.185312", "MEAN_MOTION": 14.43572585, "ECCENTRICITY": 0.00936557, "INCLINATION": 73.9741, "RA_OF_ASC_NODE": 122.1834, "ARG_OF_PERICENTER": 326.1341, "MEAN_ANOMALY": 33.3856, "EPHEMERIS_TYPE": 0, "CLASSIFICATION_TYPE": "U", "NORAD_CAT_ID": 37483, "ELEMENT_SET_NO": 999, "REV_AT_EPOCH": 65443, "BSTAR": 0.00020999686, "MEAN_MOTION_DOT": 7.21e-06, "MEAN_MOTION_DDOT": 0}, "tle": {"line1": "1 37483U 93036BLL 25358.07706233  .00000721  00000+0  21000-3 0  9992", "line2": "2 37483  73.9741 122.1834 0093655 326.1341  33.3856 14.43572585654431"}}, "geometry": {"type": "Point", "coordinates": [-56.591303447432715, -22.936063527364134]}}, {"type": "Feature", "properties": {"norad_id": 37484, "name": "COSMOS 2251 DEB", "group": "cosmos-2251-debris", "lat": 3.041317368278964, "lon": -177.75906327136096, "alt_km": 778.6290282353775, "timestamp": "2025-12-27T03:58:44.544304+00:00", "meta": {"OBJECT_NAME": "COSMOS 2251 DEB", "OBJECT_ID": "1993-036BLM", "EPOCH": "2025-12-23T22:01:02.179776", "MEAN_MOTION": 14.41832075, "ECCENTRICITY": 0.0039304, "INCLINATION": 73.821, "RA_OF_ASC_NODE": 187.4539, "ARG_OF_PERICENTER": 220.8433, "MEAN_ANOMALY": 207.6544, "EPHEMERIS_TYPE": 0, "CLASSIFICATION_TYPE": "U", "NORAD_CAT_ID": 37484, "ELEMENT_SET_NO": 999, "REV_AT_EPOCH": 65540, "BSTAR": 0.00075175, "MEAN_MOTION_DOT": 2.453e-05, "MEAN_MOTION_DDOT": 0}, "tle": {"line1": "1 37484U 93036BLM 25357.91738634  .00002453  00000+0  75175-3 0  9991", "line2": "2 37484  73.8210 187.4539 0039304 220.8433 207.6544 14.41832075655400"}}, "geometry": {"type": "Point", "coordinates": [-177.75906327136096, 3.041317368278964]}}, {"type": "Feature", "properties": {"norad_id": 37486, "name": "COSMOS 2251 DEB", "group": "cosmos-2251-debris", "lat": -42.44889098246271, "lon": -75.95200356659653, "alt_km": 849.1749129484178, "timestamp": "2025-12-27T03:58:44.544314+00:00", "meta": {"OBJECT_NAME": "COSMOS 2251 DEB", "OBJECT_ID": "1993-036BLP", "EPOCH": "2025-12-25T00:47:37.338720", "MEAN_MOTION": 14.13431538, "ECCENTRICITY": 0.02312079, "INCLINATION": 73.6929, "RA_OF_ASC_NODE": 92.3714, "ARG_OF_PERICENTER": 318.5034, "MEAN_ANOMALY": 220.7861, "EPHEMERIS_TYPE": 0, "CLASSIFICATION_TYPE": "U", "NORAD_CAT_ID": 37486, "ELEMENT_SET_NO": 999, "REV_AT_EPOCH": 63543, "BSTAR": 0.0021109743, "MEAN_MOTION_DOT": 5.095e-05, "MEAN_MOTION_DDOT": 0}, "tle": {"line1": "1 37486U 93036BLP 25359.03307105  .00005095  00000+0  21110-2 0  9997", "line2": "2 37486  73.6929  92.3714 0231207 318.5034 220.7861 14.13431538635431"}}, "geometry": {"type": "Point", "coordinates": [-75.95200356659653, -42.44889098246271]}}, {"type": "Feature", "properties": {"norad_id": 37487, "name": "COSMOS 2251 DEB", "group": "cosmos-2251-debris", "lat": -59.14420224566543, "lon": 12.29201786608173, "alt_km": 638.6868608680224, "timestamp": "2025-12-27T03:58:44.544323+00:00", "meta": {"OBJECT_NAME": "COSMOS 2251 DEB", "OBJECT_ID": "1993-036BLQ", "EPOCH": "2025-12-24T05:11:49.367040", "MEAN_MOTION": 14.81463002, "ECCENTRICITY": 0.00266054, "INCLINATION": 73.9017, "RA_OF_ASC_NODE": 169.2533, "ARG_OF_PERICENTER": 4.3349, "MEAN_ANOMALY": 355.8052, "EPHEMERIS_TYPE": 0, "CLASSIFICATION_TYPE": "U", "NORAD_CAT_ID": 37487, "ELEMENT_SET_NO": 999, "REV_AT_EPOCH": 81415, "BSTAR": 0.0032114426, "MEAN_MOTION_DOT": 0.00025372, "MEAN_MOTION_DDOT": 0}, "tle": {"line1": "1 37487U 93036BLQ 25358.21654360  .00025372  00000+0  32114-2 0  9991", "line2": "2 37487  73.9017 169.2533 0026605   4.3349 355.8052 14.81463002814155"}}, "geometry": {"type": "Point", "coordinates": [12.29201786608173, -59.14420224566543]}}, {"type": "Feature", "properties": {"norad_id": 37491, "name": "COSMOS 2251 DEB", "group": "cosmos-2251-debris", "lat": -73.2662834244378, "lon": 143.70471722614886, "alt_km": 775.3041896196737, "timestamp": "2025-12-27T03:58:44.544332+00:00", "meta": {"OBJECT_NAME": "COSMOS 2251 DEB", "OBJECT_ID": "1993-036BLU", "EPOCH": "2025-12-25T00:03:30.917952", "MEAN_MOTION": 13.7531974, "ECCENTRICITY": 0.03163036, "INCLINATION": 73.9051, "RA_OF_ASC_NODE": 253.5322, "ARG_OF_PERICENTER": 244.3669, "MEAN_ANOMALY": 112.4464, "EPHEMERIS_TYPE": 0, "CLASSIFICATION_TYPE": "U", "NORAD_CAT_ID": 37491, "ELEMENT_SET_NO": 999, "REV_AT_EPOCH": 55915, "BSTAR": 0.00078980531, "MEAN_MOTION_DOT": 1.066e-05, "MEAN_MOTION_DDOT": 0}, "tle": {"line1": "1 37491U 93036BLU 25359.00244118  .00001066  00000+0  78981-3 0  9997", "line2": "2 37491  73.9051 253.5322 0316303 244.3669 112.4464 13.75319740559150"}}, "geometry": {"type": "Point", "coordinates": [143.70471722614886, -73.2662834244378]}}, {"type": "Feature", "properties": {"norad_id": 37498, "name": "COSMOS 2251 DEB", "group": "cosmos-2251-debris", "lat": 59.62750939171895, "lon": -52.65295569401357, "alt_km": 705.6021933518914, "timestamp": "2025-12-27T03:58:44.544341+00:00", "meta": {"OBJECT_NAME": "COSMOS 2251 DEB", "OBJECT_ID": "1993-036BMB", "EPOCH": "2025-12-26T04:20:30.755328", "MEAN_MOTION": 14.54866215, "ECCENTRICITY": 0.0011817, "INCLINATION": 74.0361, "RA_OF_ASC_NODE": 158.4484, "ARG_OF_PERICENTER": 221.8173, "MEAN_ANOMALY": 138.2088, "EPHEMERIS_TYPE": 0, "CLASSIFICATION_TYPE": "U", "NORAD_CAT_ID": 37498, "ELEMENT_SET_NO": 999, "REV_AT_EPOCH": 65550, "BSTAR": 0.00091877, "MEAN_MOTION_DOT": 3.923e-05, "MEAN_MOTION_DDOT": 0}, "tle": {"line1": "1 37498U 93036BMB 25360.18091152  .00003923  00000+0  91877-3 0  9996", "line2": "2 37498  74.0361 158.4484 0011817 221.8173 138.2088 14.54866215655503"}}, "geometry": {"type": "Point", "coordinates": [-52.65295569401357, 59.62750939171895]}}, {"type": "Feature", "properties": {"norad_id": 37499, "name": "COSMOS 2251 DEB", "group": "cosmos-2251-debris", "lat": -13.125184560199994, "lon": -68.04528517501006, "alt_km": 763.0525368453273, "timestamp": "2025-12-27T03:58:44.544351+00:00", "meta": {"OBJECT_NAME": "COSMOS 2251 DEB", "OBJECT_ID": "1993-036BMC", "EPOCH": "2025-12-25T13:32:33.605376", "MEAN_MOTION": 14.34354595, "ECCENTRICITY": 0.0027475, "INCLINATION": 74.0386, "RA_OF_ASC_NODE": 298.7117, "ARG_OF_PERICENTER": 11.2548, "MEAN_ANOMALY": 348.9212, "EPHEMERIS_TYPE": 0, "CLASSIFICATION_TYPE": "U", "NORAD_CAT_ID": 37499, "ELEMENT_SET_NO": 999, "REV_AT_EPOCH": 85333, "BSTAR": 0.00018715, "MEAN_MOTION_DOT": 5.02e-06, "MEAN_MOTION_DDOT": 0}, "tle": {"line1": "1 37499U 93036BMC 25359.56427784  .00000502  00000+0  18715-3 0  9991", "line2": "2 37499  74.0386 298.7117 0027475  11.2548 348.9212 14.34354595853337"}}, "geometry": {"type": "Point", "coordinates": [-68.04528517501006, -13.125184560199994]}}, {"type": "Feature", "properties": {"norad_id": 37528, "name": "COSMOS 2251 DEB", "group": "cosmos-2251-debris", "lat": -72.44884796262319, "lon": -20.154724695946317, "alt_km": 716.7127035612775, "timestamp": "2025-12-27T03:58:44.544360+00:00", "meta": {"OBJECT_NAME": "COSMOS 2251 DEB", "OBJECT_ID": "1993-036BNH", "EPOCH": "2025-12-25T12:42:07.093728", "MEAN_MOTION": 14.50565382, "ECCENTRICITY": 0.0021139, "INCLINATION": 74.0377, "RA_OF_ASC_NODE": 98.1019, "ARG_OF_PERICENTER": 245.0707, "MEAN_ANOMALY": 114.8257, "EPHEMERIS_TYPE": 0, "CLASSIFICATION_TYPE": "U", "NORAD_CAT_ID": 37528, "ELEMENT_SET_NO": 999, "REV_AT_EPOCH": 86116, "BSTAR": 0.00049222, "MEAN_MOTION_DOT": 1.907e-05, "MEAN_MOTION_DDOT": 0}, "tle": {"line1": "1 37528U 93036BNH 25359.52924877  .00001907  00000+0  49222-3 0  9992", "line2": "2 37528  74.0377  98.1019 0021139 245.0707 114.8257 14.50565382861163"}}, "geometry": {"type": "Point", "coordinates": [-20.154724695946317, -72.44884796262319]}}, {"type": "Feature", "properties": {"norad_id": 37530, "name": "COSMOS 2251 DEB", "group": "cosmos-2251-debris", "lat": 56.11359870472816, "lon": -27.552433069418193, "alt_km": 759.8943642808645, "timestamp": "2025-12-27T03:58:44.544370+00:00", "meta": {"OBJECT_NAME": "COSMOS 2251 DEB", "OBJECT_ID": "1993-036BNK", "EPOCH": "2025-12-26T15:07:05.651328", "MEAN_MOTION": 14.34521446, "ECCENTRICITY": 0.0026474, "INCLINATION": 74.037, "RA_OF_ASC_NODE": 308.2034, "ARG_OF_PERICENTER": 6.4015, "MEAN_ANOMALY": 166.8607, "EPHEMERIS_TYPE": 0, "CLASSIFICATION_TYPE": "U", "NORAD_CAT_ID": 37530, "ELEMENT_SET_NO": 999, "REV_AT_EPOCH": 85431, "BSTAR": 0.00025818, "MEAN_MOTION_DOT": 7.05e-06, "MEAN_MOTION_DDOT": 0}, "tle": {"line1": "1 37530U 93036BNK 25360.62992652  .00000705  00000+0  25818-3 0  9994", "line2": "2 37530  74.0370 308.2034 0026474   6.4015 166.8607 14.34521446854319"}}, "geometry": {"type": "Point", "coordinates": [-27.552433069418193, 56.11359870472816]}}, {"type": "Feature", "properties": {"norad_id": 37532, "name": "COSMOS 2251 DEB", "group": "cosmos-2251-debris", "lat": -64.42408327716706, "lon": 45.68372830440278, "alt_km": 748.2561537082611, "timestamp": "2025-12-27T03:58:44.544379+00:00", "meta": {"OBJECT_NAME": "COSMOS 2251 DEB", "OBJECT_ID": "1993-036BNM", "EPOCH": "2025-12-24T19:59:09.008160", "MEAN_MOTION": 14.42423835, "ECCENTRICITY": 0.00162225, "INCLINATION": 74.0486, "RA_OF_ASC_NODE": 193.3082, "ARG_OF_PERICENTER": 292.8067, "MEAN_ANOMALY": 87.0164, "EPHEMERIS_TYPE": 0, "CLASSIFICATION_TYPE": "U", "NORAD_CAT_ID": 37532, "ELEMENT_SET_NO": 999, "REV_AT_EPOCH": 85090, "BSTAR": 0.00019035251, "MEAN_MOTION_DOT": 6.04e-06, "MEAN_MOTION_DDOT": 0}, "tle": {"line1": "1 37532U 93036BNM 25358.83274315  .00000604  00000+0  19035-3 0  9997", "line2": "2 37532  74.0486 193.3082 0016222 292.8067  87.0164 14.42423835850908"}}, "geometry": {"type": "Point", "coordinates": [45.68372830440278, -64.42408327716706]}}]}